UNKNOWN                 
1 87664U 75052    23257.80125411  .00000426  00000+0  12554-2 0  9991
2 87664  99.7580 204.5442 0214541  45.0124 344.9906 13.06590741434276
UNKNOWN                 
1 87672U 93016    23249.01525838  .00002201  00000+0  10192-2 0  9990
2 87672  70.8633 347.1002 0060544  92.6476 268.1581 14.20954125506442
UNKNOWN                 
1 87681U          23258.56971700  .00001510  00000+0  16947-2 0  9990
2 87681  66.7365 234.6770 0159638 340.4439  19.0547 13.68304072489644
UNKNOWN                 
1 87690U 76126    23257.52022805  .00005638  00000+0  97575-3 0  9992
2 87690  65.7984 300.6058 0639654 100.9191 266.4483 13.84645567493162
UNKNOWN                 
1 87706U          23258.18840484  .00004786  00000+0  10778-2 0  9994
2 87706  98.6075  37.5950 0127046 265.5210 221.0366 14.52007301459062
UNKNOWN                 
1 87725U 81053    23257.41502715  .00009789  00000+0  27683-2 0  9990
2 87725  82.8921 247.1757 0026373 184.6936 175.4016 14.45332903513762
UNKNOWN                 
1 87730U          23257.93388131  .00000136  00000+0  12695-3 0  9995
2 87730  82.9427 120.6170 0030880 126.8881 233.5112 13.74283294472721
UNKNOWN                 
1 87737U 99025    23255.90751144  .00000059  00000+0  10673-3 0  9998
2 87737  99.4944 129.5944 0133503 167.3486 193.1066 13.72113791491147
UNKNOWN                 
1 87764U 76126    23258.30927862  .00006028  00000+0  12557-2 0  9998
2 87764  65.6704 219.4166 0444896 129.4637  16.5215 14.13235224502462
UNKNOWN                 
1 87771U 75052    23257.43115527  .00000105  00000+0  36600-3 0  9999
2 87771 100.7329  64.6917 0120275  61.0687 300.2427 13.19192730426918
UNKNOWN                 
1 87782U 73086    23258.53182454  .00002499  00000+0  91823-2 0  9996
2 87782 102.4062  16.4519 0055855 100.8680 259.8705 12.93862931461760
UNKNOWN                 
1 87843U 70025    23258.21305763  .00001938  00000+0  47536-2 0  9998
2 87843  99.6794  72.0295 0243547 119.1059 243.4674 13.12114077456509
UNKNOWN                 
1 87845U          23257.54950534  .00002294  00000+0  45420-2 0  9999
2 87845  98.8763   7.0153 0580574 337.5592  20.1023 12.85697197459678
UNKNOWN                 
1 87878U          23257.63161417  .00003622  00000+0  13652-2 0  9997
2 87878  99.1820 315.5782 0042280 138.6796 221.7597 14.31585383493590
UNKNOWN                 
1 87883U 99025    23252.55743929  .00000684  00000+0  25949-3 0  9996
2 87883  99.1905 167.6587 0293512 174.8319 185.6000 14.13469806455695
UNKNOWN                 
1 87884U 99025    23257.81341846  .00000281  00000+0  18056-3 0  9997
2 87884  98.6666  22.7751 0155637 215.1420 143.9405 14.04863284503198
UNKNOWN                 
1 87898U 99025    23257.92925253  .00007971  00000+0  24396-2 0  9990
2 87898  98.8954 144.1907 0118149 133.4049 227.7047 14.38063151510512
