[{"OBJECT_NAME":"UNKNOWN","OBJECT_ID":"1975-052","EPOCH":"2023-09-14T19:13:48.355104","MEAN_MOTION":13.06590741,"ECCENTRICITY":0.0214541,"INCLINATION":99.758,"RA_OF_ASC_NODE":204.5442,"ARG_OF_PERICENTER":45.0124,"MEAN_ANOMALY":344.9906,"EPHEMERIS_TYPE":0,"CLASSIFICATION_TYPE":"U","NORAD_CAT_ID":87664,"ELEMENT_SET_NO":999,"REV_AT_EPOCH":43427,"BSTAR":0.0012554,"MEAN_MOTION_DOT":4.26e-6,"MEAN_MOTION_DDOT":0},{"OBJECT_NAME":"UNKNOWN","OBJECT_ID":"1993-016","EPOCH":"2023-09-06T00:21:58.324032","MEAN_MOTION":14.20954125,"ECCENTRICITY":0.0060544,"INCLINATION":70.8633,"RA_OF_ASC_NODE":347.1002,"ARG_OF_PERICENTER":92.6476,"MEAN_ANOMALY":268.1581,"EPHEMERIS_TYPE":0,"CLASSIFICATION_TYPE":"U","NORAD_CAT_ID":87672,"ELEMENT_SET_NO":999,"REV_AT_EPOCH":50644,"BSTAR":0.0010192,"MEAN_MOTION_DOT":2.201e-5,"MEAN_MOTION_DDOT":0},{"OBJECT_NAME":"UNKNOWN","OBJECT_ID":"","EPOCH":"2023-09-15T13:40:23.548800","MEAN_MOTION":13.68304072,"ECCENTRICITY":0.0159638,"INCLINATION":66.7365,"RA_OF_ASC_NODE":234.677,"ARG_OF_PERICENTER":340.4439,"MEAN_ANOMALY":19.0547,"EPHEMERIS_TYPE":0,"CLASSIFICATION_TYPE":"U","NORAD_CAT_ID":87681,"ELEMENT_SET_NO":999,"REV_AT_EPOCH":48964,"BSTAR":0.0016947,"MEAN_MOTION_DOT":1.51e-5,"MEAN_MOTION_DDOT":0},{"OBJECT_NAME":"UNKNOWN","OBJECT_ID":"1976-126","EPOCH":"2023-09-14T12:29:07.703520","MEAN_MOTION":13.84645567,"ECCENTRICITY":0.0639654,"INCLINATION":65.7984,"RA_OF_ASC_NODE":300.6058,"ARG_OF_PERICENTER":100.9191,"MEAN_ANOMALY":266.4483,"EPHEMERIS_TYPE":0,"CLASSIFICATION_TYPE":"U","NORAD_CAT_ID":87690,"ELEMENT_SET_NO":999,"REV_AT_EPOCH":49316,"BSTAR":0.00097575,"MEAN_MOTION_DOT":5.638e-5,"MEAN_MOTION_DDOT":0},{"OBJECT_NAME":"UNKNOWN","OBJECT_ID":"","EPOCH":"2023-09-15T04:31:18.178176","MEAN_MOTION":14.52007301,"ECCENTRICITY":0.0127046,"INCLINATION":98.6075,"RA_OF_ASC_NODE":37.595,"ARG_OF_PERICENTER":265.521,"MEAN_ANOMALY":221.0366,"EPHEMERIS_TYPE":0,"CLASSIFICATION_TYPE":"U","NORAD_CAT_ID":87706,"ELEMENT_SET_NO":999,"REV_AT_EPOCH":45906,"BSTAR":0.0010778,"MEAN_MOTION_DOT":4.786e-5,"MEAN_MOTION_DDOT":0},{"OBJECT_NAME":"UNKNOWN","OBJECT_ID":"1981-053","EPOCH":"2023-09-14T09:57:38.345760","MEAN_MOTION":14.45332903,"ECCENTRICITY":0.0026373,"INCLINATION":82.8921,"RA_OF_ASC_NODE":247.1757,"ARG_OF_PERICENTER":184.6936,"MEAN_ANOMALY":175.4016,"EPHEMERIS_TYPE":0,"CLASSIFICATION_TYPE":"U","NORAD_CAT_ID":87725,"ELEMENT_SET_NO":999,"REV_AT_EPOCH":51376,"BSTAR":0.0027683,"MEAN_MOTION_DOT":9.789e-5,"MEAN_MOTION_DDOT":0},{"OBJECT_NAME":"UNKNOWN","OBJECT_ID":"","EPOCH":"2023-09-14T22:24:47.345184","MEAN_MOTION":13.74283294,"ECCENTRICITY":0.003088,"INCLINATION":82.9427,"RA_OF_ASC_NODE":120.617,"ARG_OF_PERICENTER":126.8881,"MEAN_ANOMALY":233.5112,"EPHEMERIS_TYPE":0,"CLASSIFICATION_TYPE":"U","NORAD_CAT_ID":87730,"ELEMENT_SET_NO":999,"REV_AT_EPOCH":47272,"BSTAR":0.00012695,"MEAN_MOTION_DOT":1.36e-6,"MEAN_MOTION_DDOT":0},{"OBJECT_NAME":"UNKNOWN","OBJECT_ID":"1999-025","EPOCH":"2023-09-12T21:46:48.988416","MEAN_MOTION":13.72113791,"ECCENTRICITY":0.0133503,"INCLINATION":99.4944,"RA_OF_ASC_NODE":129.5944,"ARG_OF_PERICENTER":167.3486,"MEAN_ANOMALY":193.1066,"EPHEMERIS_TYPE":0,"CLASSIFICATION_TYPE":"U","NORAD_CAT_ID":87737,"ELEMENT_SET_NO":999,"REV_AT_EPOCH":49114,"BSTAR":0.00010673,"MEAN_MOTION_DOT":5.9e-7,"MEAN_MOTION_DDOT":0},{"OBJECT_NAME":"UNKNOWN","OBJECT_ID":"1976-126","EPOCH":"2023-09-15T07:25:21.672768","MEAN_MOTION":14.13235224,"ECCENTRICITY":0.0444896,"INCLINATION":65.6704,"RA_OF_ASC_NODE":219.4166,"ARG_OF_PERICENTER":129.4637,"MEAN_ANOMALY":16.5215,"EPHEMERIS_TYPE":0,"CLASSIFICATION_TYPE":"U","NORAD_CAT_ID":87764,"ELEMENT_SET_NO":999,"REV_AT_EPOCH":50246,"BSTAR":0.0012557,"MEAN_MOTION_DOT":6.028e-5,"MEAN_MOTION_DDOT":0},{"OBJECT_NAME":"UNKNOWN","OBJECT_ID":"1975-052","EPOCH":"2023-09-14T10:20:51.815328","MEAN_MOTION":13.1919273,"ECCENTRICITY":0.0120275,"INCLINATION":100.7329,"RA_OF_ASC_NODE":64.6917,"ARG_OF_PERICENTER":61.0687,"MEAN_ANOMALY":300.2427,"EPHEMERIS_TYPE":0,"CLASSIFICATION_TYPE":"U","NORAD_CAT_ID":87771,"ELEMENT_SET_NO":999,"REV_AT_EPOCH":42691,"BSTAR":0.000366,"MEAN_MOTION_DOT":1.05e-6,"MEAN_MOTION_DDOT":0},{"OBJECT_NAME":"UNKNOWN","OBJECT_ID":"1973-086","EPOCH":"2023-09-15T12:45:49.640256","MEAN_MOTION":12.93862931,"ECCENTRICITY":0.0055855,"INCLINATION":102.4062,"RA_OF_ASC_NODE":16.4519,"ARG_OF_PERICENTER":100.868,"MEAN_ANOMALY":259.8705,"EPHEMERIS_TYPE":0,"CLASSIFICATION_TYPE":"U","NORAD_CAT_ID":87782,"ELEMENT_SET_NO":999,"REV_AT_EPOCH":46176,"BSTAR":0.0091823,"MEAN_MOTION_DOT":2.499e-5,"MEAN_MOTION_DDOT":0},{"OBJECT_NAME":"UNKNOWN","OBJECT_ID":"1970-025","EPOCH":"2023-09-15T05:06:48.179232","MEAN_MOTION":13.12114077,"ECCENTRICITY":0.0243547,"INCLINATION":99.6794,"RA_OF_ASC_NODE":72.0295,"ARG_OF_PERICENTER":119.1059,"MEAN_ANOMALY":243.4674,"EPHEMERIS_TYPE":0,"CLASSIFICATION_TYPE":"U","NORAD_CAT_ID":87843,"ELEMENT_SET_NO":999,"REV_AT_EPOCH":45650,"BSTAR":0.0047536,"MEAN_MOTION_DOT":1.938e-5,"MEAN_MOTION_DDOT":0},{"OBJECT_NAME":"UNKNOWN","OBJECT_ID":"","EPOCH":"2023-09-14T13:11:17.261376","MEAN_MOTION":12.85697197,"ECCENTRICITY":0.0580574,"INCLINATION":98.8763,"RA_OF_ASC_NODE":7.0153,"ARG_OF_PERICENTER":337.5592,"MEAN_ANOMALY":20.1023,"EPHEMERIS_TYPE":0,"CLASSIFICATION_TYPE":"U","NORAD_CAT_ID":87845,"ELEMENT_SET_NO":999,"REV_AT_EPOCH":45967,"BSTAR":0.004542,"MEAN_MOTION_DOT":2.294e-5,"MEAN_MOTION_DDOT":0},{"OBJECT_NAME":"UNKNOWN","OBJECT_ID":"","EPOCH":"2023-09-14T15:09:31.464288","MEAN_MOTION":14.31585383,"ECCENTRICITY":0.004228,"INCLINATION":99.182,"RA_OF_ASC_NODE":315.5782,"ARG_OF_PERICENTER":138.6796,"MEAN_ANOMALY":221.7597,"EPHEMERIS_TYPE":0,"CLASSIFICATION_TYPE":"U","NORAD_CAT_ID":87878,"ELEMENT_SET_NO":999,"REV_AT_EPOCH":49359,"BSTAR":0.0013652,"MEAN_MOTION_DOT":3.622e-5,"MEAN_MOTION_DDOT":0},{"OBJECT_NAME":"UNKNOWN","OBJECT_ID":"1999-025","EPOCH":"2023-09-09T13:22:42.754656","MEAN_MOTION":14.13469806,"ECCENTRICITY":0.0293512,"INCLINATION":99.1905,"RA_OF_ASC_NODE":167.6587,"ARG_OF_PERICENTER":174.8319,"MEAN_ANOMALY":185.6,"EPHEMERIS_TYPE":0,"CLASSIFICATION_TYPE":"U","NORAD_CAT_ID":87883,"ELEMENT_SET_NO":999,"REV_AT_EPOCH":45569,"BSTAR":0.00025949,"MEAN_MOTION_DOT":6.84e-6,"MEAN_MOTION_DDOT":0},{"OBJECT_NAME":"UNKNOWN","OBJECT_ID":"1999-025","EPOCH":"2023-09-14T19:31:19.354944","MEAN_MOTION":14.04863284,"ECCENTRICITY":0.0155637,"INCLINATION":98.6666,"RA_OF_ASC_NODE":22.7751,"ARG_OF_PERICENTER":215.142,"MEAN_ANOMALY":143.9405,"EPHEMERIS_TYPE":0,"CLASSIFICATION_TYPE":"U","NORAD_CAT_ID":87884,"ELEMENT_SET_NO":999,"REV_AT_EPOCH":50319,"BSTAR":0.00018056,"MEAN_MOTION_DOT":2.81e-6,"MEAN_MOTION_DDOT":0},{"OBJECT_NAME":"UNKNOWN","OBJECT_ID":"1999-025","EPOCH":"2023-09-14T22:18:07.418592","MEAN_MOTION":14.38063151,"ECCENTRICITY":0.0118149,"INCLINATION":98.8954,"RA_OF_ASC_NODE":144.1907,"ARG_OF_PERICENTER":133.4049,"MEAN_ANOMALY":227.7047,"EPHEMERIS_TYPE":0,"CLASSIFICATION_TYPE":"U","NORAD_CAT_ID":87898,"ELEMENT_SET_NO":999,"REV_AT_EPOCH":51051,"BSTAR":0.0024396,"MEAN_MOTION_DOT":7.971e-5,"MEAN_MOTION_DDOT":0}]
